     2              NAVIGATION DATA                         RINEX VERSION / TYPE
CCRINEXN V1.6.0 UX  CDDIS               26-AUG-16 15:33     PGM / RUN BY / DATE 
IGS BROADCAST EPHEMERIS FILE                                COMMENT             
    0.5588D-08  0.1490D-07 -0.5960D-07 -0.1192D-06          ION ALPHA           
    0.7782D+05  0.3277D+05 -0.6554D+05 -0.2621D+06          ION BETA            
    0.000000000000D+00 0.000000000000D+00   589824     1911 DELTA-UTC: A0,A1,T,W
    17                                                      LEAP SECONDS        
                                                            END OF HEADER       
14 16  8 25 21 59 44.0-0.317269004881D-04-0.193267624127D-11 0.000000000000D+00
    0.200000000000D+01 0.373125000000D+02 0.451947412827D-08-0.408376535459D+00
    0.191293656826D-05 0.894074619282D-02 0.100620090962D-04 0.515405425835D+04
    0.424784000000D+06-0.447034835815D-07-0.162461415124D+01 0.447034835815D-07
    0.963104491294D+00 0.187250000000D+03-0.195612421194D+01-0.813998202176D-08
   -0.443947073547D-09 0.100000000000D+01 0.191100000000D+04 0.000000000000D+00
    0.200000000000D+01 0.000000000000D+00-0.931322574616D-08 0.200000000000D+01
    0.419160000000D+06 0.000000000000D+00 0.000000000000D+00 0.000000000000D+00
21 16  8 25 21 59 44.0-0.531021505594D-03-0.568434188608D-12 0.000000000000D+00
    0.300000000000D+01-0.183750000000D+02 0.504485299552D-08 0.251168696589D+01
   -0.108219683170D-05 0.233749687905D-01 0.877678394318D-05 0.515356154251D+04
    0.424784000000D+06 0.230967998505D-06 0.245790848370D+01-0.169500708580D-06
    0.937287659119D+00 0.195812500000D+03-0.176530192377D+01-0.786782772661D-08
    0.383944564261D-09 0.100000000000D+01 0.191100000000D+04 0.000000000000D+00
    0.200000000000D+01 0.000000000000D+00-0.977888703346D-08 0.300000000000D+01
    0.422700000000D+06 0.400000000000D+01 0.000000000000D+00 0.000000000000D+00
 1 16  8 25 22  0  0.0 0.316500663757D-04 0.136424205266D-11 0.000000000000D+00
    0.700000000000D+01-0.270625000000D+02 0.454447500991D-08-0.210924707049D+01
   -0.159256160259D-05 0.584774126764D-02 0.920146703720D-05 0.515363689995D+04
    0.424800000000D+06 0.134110450745D-06 0.249405732549D+01-0.987201929092D-07
    0.965251412813D+00 0.203906250000D+03 0.529772987217D+00-0.795140263641D-08
    0.496806408267D-09 0.100000000000D+01 0.191100000000D+04 0.000000000000D+00
    0.200000000000D+01 0.000000000000D+00 0.512227416039D-08 0.700000000000D+01
    0.417600000000D+06 0.400000000000D+01 0.000000000000D+00 0.000000000000D+00
 2 16  8 25 22  0  0.0 0.560921616852D-03-0.454747350886D-11 0.000000000000D+00
    0.100000000000D+03-0.143437500000D+02 0.499520807047D-08-0.168149652135D+01
   -0.609084963798D-06 0.158789491979D-01 0.860728323460D-05 0.515362338638D+04
    0.424800000000D+06 0.284984707832D-06 0.244659550851D+01 0.335276126862D-07
    0.944032112304D+00 0.199468750000D+03-0.209104289535D+01-0.808355099806D-08
    0.468590947265D-09 0.100000000000D+01 0.191100000000D+04 0.000000000000D+00
    0.400000000000D+01 0.000000000000D+00-0.204890966415D-07 0.100000000000D+03
    0.417600000000D+06 0.400000000000D+01 0.000000000000D+00 0.000000000000D+00
 3 16  8 25 22  0  0.0-0.830460339785D-04-0.250111042988D-11 0.000000000000D+00
    0.690000000000D+02-0.484375000000D+01 0.492413354536D-08-0.235661194996D+01
   -0.314787030220D-06 0.139589188620D-03 0.721402466297D-05 0.515363002396D+04
    0.424800000000D+06-0.353902578354D-07-0.274779456639D+01 0.372529029846D-08
    0.959682139276D+00 0.238562500000D+03-0.367159329134D+00-0.815498246709D-08
   -0.350014565942D-10 0.100000000000D+01 0.191100000000D+04 0.000000000000D+00
    0.200000000000D+01 0.000000000000D+00 0.139698386192D-08 0.690000000000D+02
    0.423270000000D+06 0.000000000000D+00 0.000000000000D+00 0.000000000000D+00
 4 16  8 25 22  0  0.0-0.260350760073D-03-0.227373675443D-12 0.000000000000D+00
    0.620000000000D+02-0.100312500000D+02 0.540379651839D-08 0.112148910191D+01
   -0.558793544769D-06 0.843779230490D-02 0.400468707085D-05 0.515367115402D+04
    0.424800000000D+06-0.132247805595D-06 0.417180183355D+00 0.242143869400D-07
    0.983313023666D+00 0.314937500000D+03 0.900964368737D+00-0.826713007344D-08
   -0.122862260564D-09 0.100000000000D+01 0.191100000000D+04 0.000000000000D+00
    0.400000000000D+01 0.630000000000D+02-0.195577740669D-07 0.620000000000D+02
    0.421350000000D+06 0.400000000000D+01 0.000000000000D+00 0.000000000000D+00
 5 16  8 25 22  0  0.0-0.955751165748D-04 0.261479726760D-11 0.000000000000D+00
    0.104000000000D+03-0.759375000000D+01 0.533200781381D-08 0.805547242779D+00
   -0.163912773132D-06 0.468815513886D-02 0.667944550514D-05 0.515357895279D+04
    0.424800000000D+06 0.745058059692D-07-0.276090798118D+01-0.204890966415D-07
    0.946726659651D+00 0.240906250000D+03 0.486472063286D+00-0.849713965426D-08
   -0.121433629627D-09 0.100000000000D+01 0.191100000000D+04 0.000000000000D+00
    0.200000000000D+01 0.000000000000D+00-0.107102096081D-07 0.104000000000D+03
    0.417600000000D+06 0.400000000000D+01 0.000000000000D+00 0.000000000000D+00
 6 16  8 25 22  0  0.0 0.237541273236D-03 0.511590769747D-11 0.000000000000D+00
    0.400000000000D+02-0.224062500000D+02 0.455304679553D-08-0.184906122818D+01
   -0.103563070297D-05 0.233683036640D-03 0.899843871594D-05 0.515375603104D+04
    0.424800000000D+06-0.335276126862D-07 0.248564556701D+01-0.391155481338D-07
    0.965061131058D+00 0.209562500000D+03-0.134911799495D+01-0.797033199632D-08
    0.408588447920D-09 0.100000000000D+01 0.191100000000D+04 0.000000000000D+00
    0.200000000000D+01 0.000000000000D+00 0.419095158577D-08 0.400000000000D+02
    0.417600000000D+06 0.400000000000D+01 0.000000000000D+00 0.000000000000D+00
 7 16  8 25 22  0  0.0 0.432190019637D-03-0.284217094304D-11 0.000000000000D+00
    0.100000000000D+03 0.850937500000D+02 0.424767693279D-08-0.280303304229D+01
    0.430084764957D-05 0.996429356746D-02 0.800006091595D-05 0.515363585091D+04
    0.424800000000D+06-0.596046447754D-07-0.630498662526D+00-0.156462192535D-06
    0.965394407204D+00 0.226718750000D+03-0.264226590427D+01-0.791175812791D-08
    0.475019786481D-10 0.100000000000D+01 0.191100000000D+04 0.000000000000D+00
    0.200000000000D+01 0.000000000000D+00-0.111758708954D-07 0.100000000000D+03
    0.417600000000D+06 0.400000000000D+01 0.000000000000D+00 0.000000000000D+00
 8 16  8 25 22  0  0.0-0.479845330119D-04-0.147792889038D-11 0.000000000000D+00
    0.540000000000D+02-0.906562500000D+02 0.430375069706D-08 0.818151174412D+00
   -0.459328293800D-05 0.169345550239D-02 0.781565904617D-05 0.515374533844D+04
    0.424800000000D+06 0.149011611938D-07 0.143257049178D+01-0.558793544769D-07
    0.963921179940D+00 0.228906250000D+03-0.102033615358D+01-0.812462413749D-08
    0.521450291926D-10 0.100000000000D+01 0.191100000000D+04 0.000000000000D+00
    0.200000000000D+01 0.000000000000D+00 0.512227416039D-08 0.540000000000D+02
    0.417690000000D+06 0.400000000000D+01 0.000000000000D+00 0.000000000000D+00
10 16  8 25 22  0  0.0-0.887289643288D-04-0.557065504836D-11 0.000000000000D+00
    0.890000000000D+02-0.103125000000D+02 0.500913710510D-08 0.195282708864D+01
   -0.465661287308D-06 0.168909400236D-02 0.704452395439D-05 0.515367431641D+04
    0.424800000000D+06-0.428408384323D-07-0.275172405944D+01 0.100582838059D-06
    0.959905023623D+00 0.243781250000D+03-0.280063600127D+01-0.822141377199D-08
   -0.328585110509D-10 0.100000000000D+01 0.191100000000D+04 0.000000000000D+00
    0.200000000000D+01 0.000000000000D+00 0.232830643654D-08 0.890000000000D+02
    0.417600000000D+06 0.000000000000D+00 0.000000000000D+00 0.000000000000D+00
11 16  8 25 22  0  0.0-0.660733319819D-03-0.261479726760D-11 0.000000000000D+00
    0.760000000000D+02-0.495625000000D+02 0.579059834452D-08-0.269383976599D+01
   -0.263564288616D-05 0.167783005163D-01 0.892020761967D-05 0.515368029976D+04
    0.424800000000D+06 0.258907675743D-06 0.211068556369D+01 0.147148966789D-06
    0.897602534714D+00 0.165531250000D+03 0.156181504846D+01-0.840392148563D-08
    0.459662003910D-09 0.100000000000D+01 0.191100000000D+04 0.000000000000D+00
    0.290000000000D+01 0.000000000000D+00-0.121071934700D-07 0.760000000000D+02
    0.417600000000D+06 0.400000000000D+01 0.000000000000D+00 0.000000000000D+00
12 16  8 25 22  0  0.0 0.388029962778D-03 0.454747350886D-12 0.000000000000D+00
    0.500000000000D+02-0.121250000000D+02 0.381801617856D-08 0.287861244757D+01
   -0.642612576485D-06 0.605041068047D-02 0.405684113502D-05 0.515367198563D+04
    0.424800000000D+06 0.167638063431D-07 0.447118257642D+00-0.745058059692D-07
    0.990372833712D+00 0.315156250000D+03 0.787173724625D+00-0.788854287519D-08
    0.642883921553D-11 0.100000000000D+01 0.191100000000D+04 0.000000000000D+00
    0.200000000000D+01 0.000000000000D+00-0.125728547573D-07 0.500000000000D+02
    0.417600000000D+06 0.400000000000D+01 0.000000000000D+00 0.000000000000D+00
13 16  8 25 22  0  0.0-0.398172996938D-04-0.227373675443D-11 0.000000000000D+00
    0.750000000000D+02 0.253750000000D+02 0.425482008748D-08-0.184447066147D+01
    0.118091702461D-05 0.405495427549D-02 0.954978168011D-05 0.515368828773D+04
    0.424800000000D+06-0.577419996262D-07-0.158697632364D+01 0.147148966789D-06
    0.970603836540D+00 0.199937500000D+03 0.197745970911D+01-0.786389899153D-08
   -0.436803908922D-09 0.100000000000D+01 0.191100000000D+04 0.000000000000D+00
    0.200000000000D+01 0.000000000000D+00-0.111758708954D-07 0.750000000000D+02
    0.423690000000D+06 0.400000000000D+01 0.000000000000D+00 0.000000000000D+00
